Nombre,Direccion,Latitud,Longitud,Estrellas,Tipo_hospedaje,Impuestos,Precio_final
Camino Real Pedregal,Av. Periferico 3647,19.506948,-99.10034,5,"1 noche, 1 persona",277,1693
Hotel Royal Pedregal,Periférico Sur 4363,19.3036353500082,-99.2002855637111,5,"1 noche, 1 persona",237,1447
Fiesta Americana México Toreo,Boulevard Manuel Avila Camacho 5,19.453637,-99.21837,5,"1 noche, 1 persona",333,2040
Fiesta Americana Reforma,"PASEO DE LA REFORMA,80",19.431929,-99.154744,5,"1 noche, 1 persona",276,1687
Hotel Corinto,Ignacio Vallarta # 24,19.434446,-99.155747,4,"1 noche, 1 persona",96,578
Camino Real Santa Fe México,Guillermo Gonzalez Camarena 300,19.367756,-99.261636,5,"1 noche, 1 persona",281,1717
Sofitel Mexico City Reforma (Opening September 2019),297 Avenue Paseo de la Reforma,19.4284,-99.1658,5,"1 noche, 1 persona",781,4783
City Express Ciudad de México Aeropuerto,Boulevard Puerto Aereo No. 90 ,19.4226227,-99.0952393,4,"1 noche, 1 persona",236,1443
ibis México Alameda,Balderas No 49,19.4333,-99.147717,4,"1 noche, 1 persona",139,850
Krystal Satelite Maria Barbara,Blvd. Manuel Avila Camacho No. 2300,19.5223925386287,-99.2282983660698,5,"1 noche, 1 persona",186,1132
Hotel Arizona,"Av. de la Republica No. 20, Col. Tabacalera",19.4363234,-99.1568449,3,"1 noche, 1 persona",62,372
JW Marriott Hotel Mexico City Santa Fe,Av. Santa Fe 160 Col. Santa Fe,19.3676723475997,-99.2604052407532,5,"1 noche, 1 persona",343,2097
Stadia Suites Santa Fe,Juan Salvador Agraz No. 60,19.358876,-99.277321100235,4,"1 noche, 1 persona",241,1476
Holiday Inn Express Hotel & Suites WTC,"Dakota #95, Junto al centro de exposiciones WTC",19.395766789953,-99.1745674609865,4,"1 noche, 1 persona",274,1674
Residence L'Heritage Tennyson by BlueBay,Tennyson 79 Col. Polanco ,19.4305137023664,-99.1951498354319,4,"1 noche, 1 persona",264,1643
Hilton Mexico City Reforma,Av. Juarez  70. Colonia Centro 70,19.435125,-99.146581,4,"1 noche, 1 persona",391,2442
Holiday inn Mexico Buenavista,"Mariano Azuela 12, col. Sta. Maria La ribera",19.442636554475,-99.1552704576721,5,"1 noche, 1 persona",206,1256
Real Inn Perinorte by Camino Real,Av. Gustavo Baz N° 4001,19.5494079751838,-99.2075111045074,4,"1 noche, 1 persona",164,1002
Hotel Sevilla,Serapio Rendon # 124,19.4332075394646,-99.160795211792,4,"1 noche, 1 persona",91,550
NH Collection Mexico City Airport T2,"Capitán Carlos León SN, Terminal 2",19.421177250805,-99.0773355960846,4,"1 noche, 1 persona",440,2754
W Mexico City,Campos Eliseos 252,19.427482,-99.195452,5,"1 noche, 1 persona",626,3831
FlowSuites Condesa,Av. Nuevo Leon No. 108 Piso 6,19.4109182,-99.1723986,NA,"1 noche, 1 persona",465,2850
Izta 54 - Hostel,54 Iztaccihuatl,19.41026,-99.16934,3,"1 noche, 1 persona",221,1351
Hotel Casa Comtesse,197 Av. Benjamín Franklin Hipódromo,19.404646,-99.173726,4,"1 noche, 1 persona",383,2347
Hostal La Encantada,Guerrero No 108 Col Del Carmen Coyoacan,19.356437,-99.16597,NA,"1 noche, 1 persona",88,538
La Casa Del Volcan,Avenida ponantzin s-n Barrio el Rosario,19.552803,-99.097553,3,"1 noche, 1 persona",188,1138
One Ciudad de Mexico Patriotismo,Av. Patriotismo 229,19.3963937350843,-99.1807918858444,3,"1 noche, 1 persona",165,1010
Stara San Angel Inn,Ave. Desierto de los Leones No. 4058,19.347005,-99.204508,5,"1 noche, 1 persona",575,3597
Hotel Cartagena,Norte 1-C No. 4835 Col. Tlacamaca,19.4746271811736,-99.138338413815,4,"1 noche, 1 persona",81,502
Hotel Century Zona Rosa,"Liverpool No. 152, C.P. 06600",19.4238687225729,-99.1647755927292,4,"1 noche, 1 persona",151,921
Quinto Elemento,Adolfo Lopez Mateos 2771,19.325033,-99.215422,3,"1 noche, 1 persona",195,1195
Capital O Roma 191,191 Monterrey Roma Norte,19.413282,-99.163127,3,"1 noche, 1 persona",234,1434
Pug Seal Boutique B&B Polanco,Edgar Allan Poe No. 90,19.4327155,-99.200043,NA,"1 noche, 1 persona",659,4035
Pedregal Palace Hotel,Periferico Sur 3487,19.3206746834316,-99.2215172946317,4,"1 noche, 1 persona",172,1048
Hotel Royal Reforma,Amberes 78 ,19.423876,-99.164391,4,"1 noche, 1 persona",174,1064
Hotel MX reforma,"Paseo de la Reforma 316, Juárez, Ciudad de México, CDMX, Mexico",19.4270641854327,-99.166451769867,4,"1 noche, 1 persona",267,1632
Casa Moras,1254 Moras Axotla,19.35846,-99.17802,3,"1 noche, 1 persona",141,810
Hotel Astor,Antonio Caso #83,19.434838996545,-99.1602415242232,3,"1 noche, 1 persona",104,646
Casa Jacinta Guest House,Segunda Cerrada de Belisario Dominguez,19.35193,-99.16594,NA,"1 noche, 1 persona",318,1948
Hotel Casa Blanca,Lafragua No. 7,19.4348623932909,-99.1534949094057,4,"1 noche, 1 persona",193,1179
Suites Los Camilos - Adults Only,96 Fernández Leal La Concepción,19.345825,-99.158721,4,"1 noche, 1 persona",415,2543
Executive 1BR Oasis With Kitchen & Private Balcony,"TemÃ­stocles 40, 304",19.429826,-99.192437,NA,"1 noche, 1 persona",1094,3896
Hotel New York Ciudad de México,Edison 45,19.436861,-99.151678,3,"1 noche, 1 persona",90,551
Gran Hotel Panorama,"Platino No. 20, corner of",19.45753,-99.12738,3,"1 noche, 1 persona",95,581
Casa Malí by Dominion,Av. Mexico No. 107,19.410417,-99.170264,4,"1 noche, 1 persona",624,3818
Hotel Aeropuerto,Blvd Puerto Aereo 380,19.4329,-99.0895,3,"1 noche, 1 persona",213,1301
Hotel del Angel,Rio Lerma No 154 Col Cuauhtemoc,19.4282882439554,-99.1688432337295,4,"1 noche, 1 persona",209,1277
HOTEL VILLAS NATURA,Carretera Queretaro Mexico 1022,19.61233,-99.19069,4,"1 noche, 1 persona",200,1200
Hotel MX roma,Mérida No. 81  Del. Cuauhtémoc,19.420965,-99.15788,4,"1 noche, 1 persona",179,1088
City Express Plus Patio Universidad,Avenida Popocatépetl No. 546,19.3655889568311,-99.1673369099908,4,"1 noche, 1 persona",224,1372
Suites Elba,Calle Rio Elba No 31,19.4252778056002,-99.1752293,5,"1 noche, 1 persona",176,1076
HauSuites Santa Fe,Prol. Reforma No. 1190,19.36095,-99.26998,4,"1 noche, 1 persona",162,990
Hotel Zocalo Central,Cinco de Mayo No. 61 Centro Historico,19.433932,-99.13504,4,"1 noche, 1 persona",1098,6726
Hotel Roosevelt,Insurgentes Sur Num. 287 Delegacion Cuauhtemoc,19.415617,-99.165824,3,"1 noche, 1 persona",144,877
Hotel Puerto Mexico,"Puerto México # 54, Peñón de los Baños",19.4354,-99.0864,3,"1 noche, 1 persona",103,630
Sheraton Mexico City Maria Isabel Hotel,Av. Paseo de la Reforma 325,19.4282029,-99.1672382,6,"1 noche, 1 persona",343,2097
St Isidro Corporate Housing,San Isidro 63 ,19.43382,-99.21238,NA,"1 noche, 1 persona",261,1593
Ibis Styles México Zona Rosa,Liverpool 115 A Col Juarez,19.425025,-99.16298,3,"1 noche, 1 persona",197,1201
Hotel Del Prado,Av Marina Nacional 399,19.4365583113268,-99.1713964639557,5,"1 noche, 1 persona",202,1238
Portonovo Hotel & Suites,Viaducto Miguel Aleman No. 645,19.40299,-99.159443,4,"1 noche, 1 persona",136,831
Hostal CASA MX alameda,"Calle Soto 72, Guerrero, 06300 Ciudad de México, CDMX, Mexico",19.4401224312721,-99.144719,NA,"1 noche, 1 persona",27,160
Hotel PF,"Avenida Florencia No. 61 Colonia Juarez, Delegacion Cuahutemoc, Mexico DF",19.42367650856,-99.1661383558197,4,"1 noche, 1 persona",167,1016
Hotel Antas,"Miguel Negrete 9, Centro, Zona Centro",19.4336,-99.1238,2,"1 noche, 1 persona",80,486
Condesa 185,Benjamin Franklin 185,19.40485,-99.17467,4,"1 noche, 1 persona",117,672
Hotel Carlota,Río Amazonas No. 73,19.4305014,-99.1635389,5,"1 noche, 1 persona",269,1646
Casa Tamayo,220 Calle Pdte. Carranza Santa Catarina,19.348348,-99.167371,3,"1 noche, 1 persona",221,1351
Napoles Condo Suite,Dakota 95 Torre C nucleo B,19.396575,-99.175607,4,"1 noche, 1 persona",137,787
Holiday Inn Hotel & Suites Medica Sur,Puente De Piedra 150,19.29641,-99.16071,5,"1 noche, 1 persona",304,1854
Residence L'Heritage Royal Colonial by BlueBay,Alfredo Musset 38,19.4330349075821,-99.1967853123788,4,"1 noche, 1 persona",201,1227
Hotel Real del Sur,Av. División del Norte,19.320648,-99.138298,4,"1 noche, 1 persona",171,1042
Lepanto,Guerrero No 90 ,19.4422069078208,-99.1483019222505,3,"1 noche, 1 persona",112,692
City Express Plus Periferico Sur Tlalpan,Blvd Adolfo Ruiz Cortines No. 4860,19.2840639,-99.1447644,4,"1 noche, 1 persona",232,1420
Hacienda Peña Pobre,Camino Santa Teresa 480-2,19.296134,-99.188884,5,"1 noche, 1 persona",557,3408
Suites Ganges,Rio Ganges N°32 entre Rio Nazas,19.4293256,-99.1749849,4,"1 noche, 1 persona",159,968
Holiday Inn Mexico City - Plaza Universidad,Parroquia 1056,19.367926,-99.162611,4,"1 noche, 1 persona",220,1345
Privada de Horacio 18 Residences,18 Privada Horacio,19.434919,-99.210951,3,"1 noche, 1 persona",311,1904
Suites Lerma,Río Lerma No. 205,19.427799,-99.16999,5,"1 noche, 1 persona",141,861
Hotel Bristol México,Plaza Necaxa # 17,19.431167,-99.166787,4,"1 noche, 1 persona",138,838
CAPITAL OGoldsmith 126,Goldsmith 126,19.433166,-99.200596,3,"1 noche, 1 persona",152,930
"Kali Escandón, Mexico City",Av Jose Martí No 178 Col Escandon,19.4020090411985,-99.1775395505981,4,"1 noche, 1 persona",187,1135
Hotel Plaza Delta,Avenida Cuauhtémoc #489,19.400716,-99.15591,3,"1 noche, 1 persona",124,759
Suites Obelisk,Julio Verne 28 y 30,19.428107,-99.197442,5,"1 noche, 1 persona",381,2328
Hotel Centro Diana,Av. Universidad 1861,19.34285,-99.18149,2,"1 noche, 1 persona",117,717
Hotel Ritz Mexico City,"Av Francisco I. Madero 30, Centro, Cuauhtémoc, 06000 Del. Cuauhtémoc, Distrito Federal, México",19.43371,-99.13794,4,"1 noche, 1 persona",178,1088
Hotel Plaza Solis,Antonio Solis Obrera,19.409653,-99.139689,4,"1 noche, 1 persona",85,510
Hotel Valle de Mexico Toreo,Av. 1o de Mayo No. 15,19.465077,-99.226015,3,"1 noche, 1 persona",148,905
Holiday Inn Express Mexico Aeropuerto,Rio Churubusco 253 ,19.400579,-99.098895,3,"1 noche, 1 persona",235,1435
Hotel Castropol,Pino Suarez No 58 Col Centro,19.4269619523523,-99.1327573888855,3,"1 noche, 1 persona",115,701
Holiday Inn Suites Zona Rosa,Londres No 15 Col Juarez,19.4283965427002,-99.1581121017225,4,"1 noche, 1 persona",187,1137
Hotel Monarca,Av. Alvaro Obregón 32,19.418825,-99.156151,3,"1 noche, 1 persona",108,657
City Express Ciudad de México Alameda,"Revillagigedo 23, Colonia Centro, Centro, 06090 Ciudad de México, CDMX, México",19.4333964697881,-99.1461822453689,4,"1 noche, 1 persona",180,1100
Mansion Papilio,5 de Frebrero #28,19.34643,-99.16269,4,"1 noche, 1 persona",709,4338
Close To You By Residence LHeritage,"Calle Torcuato Tasso 325, Polanco",19.432359,-99.18354,3,"1 noche, 1 persona",283,1733
Hotel La Rosa Adults Only,Calle Eligio Ancona 269,19.4536,-99.1629,NA,"1 noche, 1 persona",85,521
Hotel Oslo,Eje Central Lazaro Cardenas No.337,19.404114,-99.144967,3,"1 noche, 1 persona",143,868
Hotel Metropol Mexico DF,Luis Moya 39,19.43287,-99.14514,3,"1 noche, 1 persona",133,805
Hotel Montreal,"Calz. de Tlalpan 2073, Esq. Miguel A. de Quevedo, Col. Parque San Andrés, Delg. Coyoacán",19.343812,-99.144548,4,"1 noche, 1 persona",97,591
Hotel Monaco,Avenida Guererro 12 Colonia Buenavista,19.438674410461,-99.149114782209,4,"1 noche, 1 persona",127,768
Design Hotel MUMEDI,74 Av Francisco I. Madero Centro,19.433336,-99.13457,4,"1 noche, 1 persona",541,3312
Hotel Mexicali,"San Antonio Abad No 285,Ciudad de México, México D.F., México",19.407823,-99.1357672,3,"1 noche, 1 persona",95,579
Capital O Andrade,"Dr. Andrade 69, Doctores",19.420789,-99.1456923633814,3,"1 noche, 1 persona",86,522
Hotel Diligencias,Belisario Dominguez No. 6,19.438832,-99.13963,3,"1 noche, 1 persona",97,593
Finca Coyoacan,243 Calle Xicoténcatl Del Carmen,19.35398,-99.158294,3,"1 noche, 1 persona",254,1464
Distrito Condesa,Cholula 62,19.40848,-99.17464,3,"1 noche, 1 persona",254,1557
Hotel Lord,Dr. Velasco No. 17,19.41906,-99.14486,4,"1 noche, 1 persona",94,574
Roomies Hostel Condesa,Calle Chiapas No. 173,19.41208,-99.16417,2,"1 noche, 1 persona",29,172
Hotel Principal,Bolivar 29,19.43292,-99.13849,2,"1 noche, 1 persona",58,350
Hotel & Villas Panama,Eje 3 Norte  Avenida Cuitlahuac 2701,19.462217,-99.177453,4,"1 noche, 1 persona",115,701
Maison Salamanca,35 Calle Salamanca Roma Norte,19.420511,-99.170097,3,"1 noche, 1 persona",219,1338
Hotel San Francisco Centro Historico,Luis Moya # 11,19.433975,-99.144941,3,"1 noche, 1 persona",150,918
Hotel Canada,"Av. 5 de Mayo 47,centro historico",19.4339847487642,-99.1357257613769,3,"1 noche, 1 persona",164,1002
Anys Bed and Breakfast,"Puebla 263, Colonia Roma Norte",19.42154,-99.168204,3,"1 noche, 1 persona",79,483
Casa Colima,COLIMA 226 COLONIA ROMA NORTE,19.419201,-99.162475,3,"1 noche, 1 persona",235,1439
Casa Kanabrí Hostal Boutique,169 Av. Paseo de la Reforma Cuauhtémoc,19.431152,-99.160206,2,"1 noche, 1 persona",59,359
Hotel Roble,"Uruguay No. 109, Col. Centro",19.42995,-99.13275,3,"1 noche, 1 persona",100,606
Hotel Amala,Av. Periferico Sur 7685,19.29438,-99.10266,4,"1 noche, 1 persona",192,1176
Hotel MX lagunilla,Eje Central LÃ¡zaro CÃ¡rdenas 84,19.44259,-99.139917,4,"1 noche, 1 persona",123,753
Hostel Amigo,Isabel La Católica 61,19.430016,-99.136801,NA,"1 noche, 1 persona",32,195
CAPITAL SUITES LUXURY RESIDENCES AND OFFICES,Medellín 184,19.41265,-99.1646215,4,"1 noche, 1 persona",225,1375
Motel Nuevo Tijuana - Adults Only,Ramos Millan 9,19.38316,-99.13998,3,"1 noche, 1 persona",92,563
Hostal Vallejo,1660 Calz. Vallejo Santa Rosa,19.519422,-99.1639,3,"1 noche, 1 persona",99,604
Hotel Universal,Calzada de Guadalupe No. 25,19.45294,-99.12923,1,"1 noche, 1 persona",46,281
Calle Berlin,Berlin 84B,19.35673,-99.15747,3,"1 noche, 1 persona",103,630
Collection O Arboleda 215,Arboleda 215A Lomas De Chapultepec,19.4307031,-99.2089588,3,"1 noche, 1 persona",193,1181
Hotel Vermont,VERMONT NO 29 - COL NAPOLES - MEXICO CITY DF MX 03810,19.3974077097253,-99.1728175214958,4,"1 noche, 1 persona",164,1001
Hotel El Salvador,calle República del Salvador # 16,19.43021,-99.14059,3,"1 noche, 1 persona",98,601
Colibrí B&B,Galicia 429,19.388836,-99.146152,3,"1 noche, 1 persona",91,555
Hotel Catedral,95 Donceles Col. Centro,19.435676,-99.133059,4,"1 noche, 1 persona",215,1314
Capital O Dakota B&B,Milwaukee 14,19.38796,-99.17875,3,"1 noche, 1 persona",368,2252
Hippodrome Hotel Condesa,Av. Mexico 188 ,19.4136886,-99.1679518,5,"1 noche, 1 persona",472,2891
Marquis Sky Suites,"Av. Paseo de la Reforma 465, Cuauhtémoc, 06500 Ciudad de México, CDMX, Mexico",19.42491,-99.173615,5,"1 noche, 1 persona",945,5786
Suites Newton,Newton N46,19.430844,-99.192083,3,"1 noche, 1 persona",231,1331
Punto MX Hotel,Calle República de Uruguay 47 ,19.4303862,-99.1377027,3,"1 noche, 1 persona",236,1445
Hotel Isabel,Isabel La Catolica N° 63,19.42982,-99.13683,3,"1 noche, 1 persona",94,574
Hotel Siesta Del Sur,Av. Tlahuac 5393 Colonia Los Olivos,19.303734,-99.058276,3,"1 noche, 1 persona",107,654
Londres 212,212 Londres Juárez,19.423355,-99.168152,NA,"1 noche, 1 persona",199,1216
Casa Hidalgo,167 Av Miguel Hidalgo Del Carmen,19.350854,-99.156936,3,"1 noche, 1 persona",137,837
Mansion Havre,Havre 40,19.42658,-99.161119,NA,"1 noche, 1 persona",108,658
Suites Giorgio,Rio Lerma #166,19.4281602,-99.1712694,4,"1 noche, 1 persona",150,934
Hotel Valle del Sur,"Eje 3 Oriente, Av. Arneses #311",19.346107,-99.112104,3,"1 noche, 1 persona",131,801
SATYA SUITES,252 Sagredo,19.36115,-99.18846,NA,"1 noche, 1 persona",272,1658
Hotel SR92,Calle de Francisco Díaz Covarrubias 92,19.437275,-99.167591,3,"1 noche, 1 persona",80,490
Hotel Torremolinos,339 Av. Cuitláhuac Pro Hogar,19.473862,-99.158711,3,"1 noche, 1 persona",98,601
Golds 227,227 Goldsmith. Polanco III Section,19.43537,-99.200435,3,"1 noche, 1 persona",124,758
Cuarto Ideal para Estudiantes,501 Paseo de Los Ahuehuetes Norte,19.41324,-99.23635,2,"1 noche, 1 persona",97,551
Hotel Quinta Tlalpan,Calz. de Tlalpan,19.2984,-99.150833,3,"1 noche, 1 persona",123,751
Hotel Ancona,226 Calle Eligio Ancona,19.45307,-99.16093,3,"1 noche, 1 persona",61,371
Hotel Clé,"Napoles 62 Col. Juárez, Delegación Cuauhtemoc. CP. 06600 Ciudad de México",19.430432,-99.136779,4,"1 noche, 1 persona",190,1157
Hotel Suites Marne,"Río Marne No. 12, Col. Cuauhtémoc",19.431402,-99.161382,3,"1 noche, 1 persona",128,781
Hotel Menara,88 Calle Nezahualcóyotl Centro,19.425391,-99.137828,3,"1 noche, 1 persona",86,526
Hotel Principal Junior,"Calle de Bolívar 29, Centro Histórico, Centro, 06000 Centro, CDMX, México",19.432934,-99.13876,1,"1 noche, 1 persona",50,300
Nilo 33,33 Río Nilo Cuauhtémoc,19.429087,-99.172121,3,"1 noche, 1 persona",158,965
Wanderlust District,Avenida Chapultepec 141,19.425509,-99.156185,2,"1 noche, 1 persona",57,347
Torre Sagredo,253 Sagredo Guadalupe Inn,19.361314,-99.18849,3,"1 noche, 1 persona",188,1150
Casa Pepe,Av Republica de Uruguay 86,19.43029,-99.13443,3,"1 noche, 1 persona",65,398
City Suites Santa Fe,Juan Salvador Agraz No. 69,19.3590639403742,-99.2782956222072,4,"1 noche, 1 persona",225,1371
Suites Boutique Dawat,"Calle Nueva York 154, Nápoles",19.392269,-99.177362,3,"1 noche, 1 persona",233,1448
Villas y Suites Real Azteca,"Calz. de Tlalpan 3441, Sta. Úrsula Coapa, 04650 Ciudad de México, CDMX, México",19.303362,-99.14622,4,"1 noche, 1 persona",215,1315
Villas Princess Hotel,Viad. Río de la Piedad 367,19.4053,-99.1155,3,"1 noche, 1 persona",127,775
Honey Loft - Terraza Privada,12BIS Arturo Ibáñez La Concepción,19.34806,-99.160257,3,"1 noche, 1 persona",273,1673
Hotel Santa Cruz,Av Presidente Juárez 2009,19.523204,-99.203534,3,"1 noche, 1 persona",74,441
Capitals Luxury Apartments,5482 Periferico Sur Olímpica,19.302091,-99.166435,4,"1 noche, 1 persona",181,1106
Hotel Aquario CDMX - Central del Norte,100 Pte. 112 Panamericana,19.476907,-99.14083,3,"1 noche, 1 persona",89,541
Hotel San Lucas,6 Plaza San Lucas Cuauhtémoc,19.424466,-99.132498,3,"1 noche, 1 persona",102,622
Best Western Hotel Majestic,"Av Francisco I. Madero 73, Centro, Cuauhtémoc, 06000 Ciudad de México, Distrito Federal, México",19.433248,-99.134252,4,"1 noche, 1 persona",308,1883
Sport Aristos Hotel CDMX,Av. Río Churubusco Puerta 9 Letra F,19.3959495813485,-99.0855887532234,NA,"1 noche, 1 persona",213,1301
"Piqun Room, In The Historic Center Of Coyoacan","76 Moctezuma, Del Carmen, Coyoacán",19.350817,-99.159296,3,"1 noche, 1 persona",337,1042
Hotel Estoril,Luis Moya 93 ,19.429016,-99.145825,4,"1 noche, 1 persona",188,1149
Sonder at Icon Condesa,57 Chicontepec,19.409608,-99.180688,5,"1 noche, 1 persona",2559,9263
Hotel Tres Colonias - Solo Adultos,132 Av. Ribera de San Cosme Cuauhtémoc,19.44274,-99.164044,3,"1 noche, 1 persona",72,441
Luxurious Designer 2BR Apt. in Polanco,"Avenida Homero 1433, 603",19.436423,-99.204581,NA,"1 noche, 1 persona",1072,3290
Hotel Suites San Marco,125 Calle Río Po Cuauhtémoc,19.42929,-99.168068,3,"1 noche, 1 persona",215,1315
Chipotle Loft In The Historic Center Of Coyoacan,"76 Moctezuma, Del Carmen, Coyoacán",19.350817,-99.159296,3,"1 noche, 1 persona",442,1649
Hotel Lira - Solo Adultos,Gobernador José Ceballos 70,19.41,-99.1901,3,"1 noche, 1 persona",78,476
Downtown Beds,Isabel la Católica 30,19.43287,-99.13631,NA,"1 noche, 1 persona",50,303
Casa Tuna,8 Francisco Ortega CoyoacÃ¡n,19.348139,-99.1632,3,"1 noche, 1 persona",433,2653
Galeria Plaza San Jeronimo,300 Av. Contreras San Jerónimo Lídice,19.328862,-99.213277,4,"1 noche, 1 persona",239,1462
"Morita Room, In The Heart Of Coyoacn","76 Moctezuma, Del Carmen, Coyoacán",19.350817,-99.159296,3,"1 noche, 1 persona",337,1042
Hotel Dos Naciones,Francisco Javier Mina # 13,19.4388748350954,-99.1413105512147,2,"1 noche, 1 persona",53,321
Hotel Capital DF,"Calle Tomas Alva Edison 57, Tabacalera",19.436988,-99.152083,3,"1 noche, 1 persona",98,600
Hotel La Selva,Calzada Chabacano 7,19.40828,-99.13515,1,"1 noche, 1 persona",43,262
Hotel MX Zócalo,29 2a. Cerrada 5 de Mayo Centro,19.433747,-99.135416,4,"1 noche, 1 persona",141,861
Templo Mayor,Calle del Carmen No. 26,19.436249,-99.12951,3,"1 noche, 1 persona",139,852
Loove Hotel - Adults Only,"Av. 7 No. 55, Col. Porvenir",19.411635,-99.056546,3,"1 noche, 1 persona",80,480
Hotel Dharma,Mosqueta 200,19.44544,-99.14801,3,"1 noche, 1 persona",114,692
Hotel Izta 54,Iztacchihuatl 54,19.41024,-99.16922,3,"1 noche, 1 persona",295,1807
Suites Lerma 202,Rio Lerma 202,19.42761,-99.17062,3,"1 noche, 1 persona",231,1331
Guest Green - Adults Only,Calle 9 # 89 Col. El Porvenir,19.41296,-99.0553,2,"1 noche, 1 persona",42,257
"Hip, Tech Top Floor Apt, w/ Private Terrace","Campeche 428, #5",19.410646,-99.176886,NA,"1 noche, 1 persona",1056,3677
Sonder at Icon Condesa,57 Chicontepec,19.409608,-99.180688,5,"1 noche, 1 persona",2559,9263
Hotel Tres Colonias - Solo Adultos,132 Av. Ribera de San Cosme Cuauhtémoc,19.44274,-99.164044,3,"1 noche, 1 persona",72,441
Luxurious Designer 2BR Apt. in Polanco,"Avenida Homero 1433, 603",19.436423,-99.204581,NA,"1 noche, 1 persona",1072,3290
Hotel Suites San Marco,125 Calle Río Po Cuauhtémoc,19.42929,-99.168068,3,"1 noche, 1 persona",215,1315
Chipotle Loft In The Historic Center Of Coyoacan,"76 Moctezuma, Del Carmen, Coyoacán",19.350817,-99.159296,3,"1 noche, 1 persona",442,1649
Hotel Lira - Solo Adultos,Gobernador José Ceballos 70,19.41,-99.1901,3,"1 noche, 1 persona",78,476
Downtown Beds,Isabel la Católica 30,19.43287,-99.13631,NA,"1 noche, 1 persona",50,303
Casa Tuna,8 Francisco Ortega CoyoacÃ¡n,19.348139,-99.1632,3,"1 noche, 1 persona",433,2653
Galeria Plaza San Jeronimo,300 Av. Contreras San Jerónimo Lídice,19.328862,-99.213277,4,"1 noche, 1 persona",239,1462
"Morita Room, In The Heart Of Coyoacn","76 Moctezuma, Del Carmen, Coyoacán",19.350817,-99.159296,3,"1 noche, 1 persona",337,1042
Hotel Dos Naciones,Francisco Javier Mina # 13,19.4388748350954,-99.1413105512147,2,"1 noche, 1 persona",53,321
Hotel Capital DF,"Calle Tomas Alva Edison 57, Tabacalera",19.436988,-99.152083,3,"1 noche, 1 persona",98,600
Hotel La Selva,Calzada Chabacano 7,19.40828,-99.13515,1,"1 noche, 1 persona",43,262
Hotel MX Zócalo,29 2a. Cerrada 5 de Mayo Centro,19.433747,-99.135416,4,"1 noche, 1 persona",141,861
Templo Mayor,Calle del Carmen No. 26,19.436249,-99.12951,3,"1 noche, 1 persona",139,852
Loove Hotel - Adults Only,"Av. 7 No. 55, Col. Porvenir",19.411635,-99.056546,3,"1 noche, 1 persona",80,480
Hotel Dharma,Mosqueta 200,19.44544,-99.14801,3,"1 noche, 1 persona",114,692
Hotel Izta 54,Iztacchihuatl 54,19.41024,-99.16922,3,"1 noche, 1 persona",295,1807
Suites Lerma 202,Rio Lerma 202,19.42761,-99.17062,3,"1 noche, 1 persona",231,1331
Guest Green - Adults Only,Calle 9 # 89 Col. El Porvenir,19.41296,-99.0553,2,"1 noche, 1 persona",42,257
"Hip, Tech Top Floor Apt, w/ Private Terrace","Campeche 428, #5",19.410646,-99.176886,NA,"1 noche, 1 persona",1056,3677
Habanero Loft-frida Kahlos Neighborhood-coyoacan,"76 Moctezuma, Del Carmen, Coyoacán",19.350817,-99.159296,4,"1 noche, 1 persona",442,1650
Hotel Señorial,Callejon de la Esperanza No. 8,19.42752,-99.13978,2,"1 noche, 1 persona",82,501
La Quinta de Xochimilco,Calle Dr M Morales 50,19.246381,-99.095778,3,"1 noche, 1 persona",210,1210
Hotel Quinta Avenida,Calle 7 no 140 Col Agricola Pantitlan,19.405919,-99.057895,3,"1 noche, 1 persona",114,694
Shunya Apartment,Calzada General Mariano Escobedo 491,19.43218,-99.18158,4,"1 noche, 1 persona",889,5122
Hotel Playa Internacional,Calle Nezahualcóyotl 52,19.42557,-99.14006,3,"1 noche, 1 persona",63,383
Premium Puerta Alameda Lofts,18 Revillagigedo Centro,19.434302,-99.145692,4,"1 noche, 1 persona",163,996
Polanco Amplio y Lindo Depto LM303,"Lamartine 248 303, Polanco V Seccion",19.433889,-99.189594,4,"1 noche, 1 persona",554,3185
Círculo Condesa,7 Calle Ometusco Hipódromo,19.408991,-99.172919,4,"1 noche, 1 persona",369,2262
San Diego,Luis Moya # 98,19.4289477,-99.1456801,3,"1 noche, 1 persona",108,661
Kali Centro Mexico City,111 Luis Moya Centro,19.428137,-99.146232,3,"1 noche, 1 persona",138,843
Suites Hamburgo,Calle Hamburgo 45,19.428353,-99.160533,3,"1 noche, 1 persona",294,1694
Casa 9,9 Cuernavaca Colonia Condesa,19.41663,-99.17408,3,"1 noche, 1 persona",1334,8173
Casa Donceles Apt 5,Donceles 26,19.436772,-99.138413,3,"1 noche, 1 persona",228,1311
Casa María Hostal,28 Justo Sierra Centro,19.435623,-99.130794,3,"1 noche, 1 persona",44,267
Casa de la Luz,Rinconada de Jesús 7,19.429539,-99.132994,4,"1 noche, 1 persona",393,2406
Downtown Blue House 3brmapt At The Heart Of Mexico,12 Calle Republica de Cuba,19.437761,-99.139473,4,"1 noche, 1 persona",691,2486
Hotel Habana,77 Calle Republica de Cuba Centro,19.436996,-99.135436,3,"1 noche, 1 persona",99,604
Casa Donceles Apt 2,Donceles 26,19.436829,-99.138389,NA,"1 noche, 1 persona",205,1252
Casa Donceles Apt 4,Donceles 26,19.436772,-99.138413,NA,"1 noche, 1 persona",258,1580
JavierInn Suites,35 San Jerónimo Centro,19.42696,-99.13759,2,"1 noche, 1 persona",546,3346
Hotel Villa Condesa,Colima 428 Col. Roma/Condesa,19.41702,-99.17268,4,"1 noche, 1 persona",472,2891
Selina Mexico City Downtown,"José María Izazaga 8, Centro Histórico",19.426943,-99.14157,3,"1 noche, 1 persona",60,360
Hotel del Principado,"Londres No. 42, Col. Juárez",19.426934,-99.160839,3,"1 noche, 1 persona",124,768
Holiday Inn Mexico Dali Airport,Viaducto Rio De La Piedad 260 ,19.405711,-99.119285,3,"1 noche, 1 persona",236,1441
Mexico City Marriott Reforma Hotel,"Paseo De La Reforma, 276 - Col Juarez",19.4279685847599,-99.1642978134918,5,"1 noche, 1 persona",385,2353
Hotel El Ejecutivo by Reforma Avenue,Viena 8 Col Juarez,19.4307289401089,-99.1573786011887,4,"1 noche, 1 persona",156,950
Hotel Fontan Reforma,Paseo de la Reforma 24,19.4363955283761,-99.1478107582665,4,"1 noche, 1 persona",139,847
Presidente Intercontinental Mexico City,Campos Eliseos 218,19.42748988203,-99.1934696197128,5,"1 noche, 1 persona",605,3699
Hotel Riazor Aeropuerto,Viaducto Miguel Aleman 297,19.40537,-99.11805,4,"1 noche, 1 persona",223,1388
Barceló México Reforma,"Paseo de la Reforma 1, Tabacalera, 06030 Ciudad de México, CDMX, México",19.4353071,-99.1510506,5,"1 noche, 1 persona",290,1773
Krystal Grand Insurgentes Sur,"Av. Insurgentes Sur 1991, San Ángel, 01000 Ciudad de México, CDMX, México",19.3509636940343,-99.1865584840441,5,"1 noche, 1 persona",236,1472
Emporio Reforma,"Av. Paseo de la Reforma No. 124, Col. Juárez",19.4317152354154,-99.1570398220902,5,"1 noche, 1 persona",200,1224
Galeria Plaza Reforma,Hamburgo 195 Col Juarez,19.4248982974032,-99.1679894748688,5,"1 noche, 1 persona",244,1486
Marquis Reforma,Paseo De La Reforma 465 Col Cuauhtemoc,19.42473,-99.17341,5,"1 noche, 1 persona",583,3571
Presidente InterContinental Santa Fe Mexico,Av. Juan Salvador Agraz 97,19.3579490656601,-99.278170954631,5,"1 noche, 1 persona",351,2146
Hotel Imperial Reforma,Paseo de la Reforma 64,19.4333141179617,-99.153578338623,4,"1 noche, 1 persona",203,1240
Suites Contempo,Melchor Ocampo No. 455,19.42509,-99.17697,NA,"1 noche, 1 persona",274,1674
Camino Real Polanco,"Mariano Escobedo 700, Col Anzures",19.427772,-99.179544,5,"1 noche, 1 persona",326,2031
Hotel Sevilla Palace,Avenida Paseo de La Reforma 105,19.4327363529416,-99.1561668220901,5,"1 noche, 1 persona",225,1374
Hotel MX congreso,Ferrocarril Interoceanico No.9,19.4353785099788,-99.1156220262894,4,"1 noche, 1 persona",118,717
Krystal Urban Aeropuerto Ciudad de México,Avenida Javier Rojo Gomez No. 630,19.3836629850366,-99.0756328600312,3,"1 noche, 1 persona",166,1030
Casa Donceles Premium Penthouse,Donceles 26,19.436773,-99.138478,3,"1 noche, 1 persona",382,2198
Casa Donceles Diplomatic Suite,Donceles 26,19.436772,-99.138413,NA,"1 noche, 1 persona",208,1196
Casa Donceles Apt 3,Donceles 26,19.436772,-99.138413,3,"1 noche, 1 persona",293,1684
Casa Donceles Apt 6,Donceles 26,19.436772,-99.138413,NA,"1 noche, 1 persona",228,1311
Hotel Conde Alameda - CDMX,Calle Pescaditos #15,19.430348,-99.146555,3,"1 noche, 1 persona",137,837
Casa Donceles apt 1,Donceles 26 Colonia Centro,19.436867,-99.138373,NA,"1 noche, 1 persona",250,1440
Casa Donceles Apt 7,Donceles 26,19.436772,-99.138413,NA,"1 noche, 1 persona",293,1684
Casa Donceles Penthouse 1,Donceles 26,19.436772,-99.138413,3,"1 noche, 1 persona",258,1482
Departamento Angélica Rosas Ramirez,Isabela catolica 96 int 3A,19.427214,-99.137091,3,"1 noche, 1 persona",502,1462
Círculo Mexicano,20 República de Guatemala Centro,19.435021,-99.132657,4,"1 noche, 1 persona",2969,5839
Jalapeo Loft In The Historic Center Of Coyoacn,"76 Moctezuma, Del Carmen, Coyoacán",19.350817,-99.159296,3,"1 noche, 1 persona",442,1650
Hotel Marlowe,"Av Independencia 17, Colonia Centro, Centro, 06000 Ciudad de México, CDMX, México",19.43321,-99.142395,3,"1 noche, 1 persona",163,995
City Express Plus Mundo E,Av. Cuauhtémoc No. 1700 Centro Comercial Mundo E,19.5237126,-99.2291073,4,"1 noche, 1 persona",166,994
City Express CDMX La Villa,Calzada de Guadalupe 236,19.46378,-99.1255,4,"1 noche, 1 persona",156,950
Hotel Grand Prix,"Rio Churubusco 200, Zona Aeropuerto ",19.4026731461514,-99.0975992660151,4,"1 noche, 1 persona",212,1297
Hampton Inn & Suites By Hilton Ciudad de México Centro Historico,"Calle 5 de Febrero No. 24, esq. Rep. De Uruguay",19.4300318,-99.134506,4,"1 noche, 1 persona",178,1088
Ramada by Wyndham Ciudad de Mexico Reforma,Puente De Alvarado 22,19.4377813044452,-99.1504290085983,4,"1 noche, 1 persona",146,885
City Express Plus Insurgentes Sur,Av de los Insurgentes # 1581,19.3647082483059,-99.1822399198736,4,"1 noche, 1 persona",218,1333
Suites del Angel,Rio Lerma 162,19.428538,-99.168846,4,"1 noche, 1 persona",211,1291
Hotel Mallorca,"Serapio Rendon 119, Col. San Rafael Del. Cuauhtemoc",19.4338397,-99.160798,3,"1 noche, 1 persona",66,404
Sleep Inn Ciudad de México,"Carretera Mexico, Toluca No. 5454 Col. El Yaqui, Cuajimalpa de Morelos",19.364611,-99.275992,NA,"1 noche, 1 persona",142,863
City Express Plus Satelite,Circuito Arquitectos No. 3,19.510634,-99.236523,4,"1 noche, 1 persona",168,1008
Hotel Premier,"Atenas 72, Esq. Milán, Col. Juárez ",19.431353,-99.156457,3,"1 noche, 1 persona",135,818
Hotel Eurostars Zona Rosa Suites,"Londres 115, Colonia Juarez-Delegación Cuauhtemoc",19.425536,-99.163838,4,"1 noche, 1 persona",219,1338
City Express Plus Santa Fe,"Juan Salvador Agraz No. 69, Del. Cuajimalpa",19.3589386777937,-99.2784116067924,4,"1 noche, 1 persona",156,946
City Suites Anzures,"Leibnitz 120, Col Anzures",19.4292869166748,-99.1785719920881,4,"1 noche, 1 persona",317,1934
Hotel MX aeropuerto,"Calle 17 No. 5, Valentin Gomez Farias",19.4175412,-99.093387,3,"1 noche, 1 persona",176,1076
Hotel MX garibaldi,Honduras No. 11,19.440557,-99.137677,4,"1 noche, 1 persona",130,791
AC by Marriott Santa Fe,Juan Salvador Agraz No 130 Colonia Santa,19.3589777777778,-99.2774944444444,3,"1 noche, 1 persona",174,1061
Hotel & Suites PF,Liverpool No. 197 Esq. Varsovia,19.423025559138,-99.1669238498204,4,"1 noche, 1 persona",167,1016
Radisson Paraiso Hotel Mexico City,"Cuspide 53, Parques del Pedregal, Tlalpan, 14020 Ciudad de México, Distrito Federal, México",19.301952,-99.189637,5,"1 noche, 1 persona",258,1609
Comfort Inn Cd de Mexico Santa Fe,Prolongación Paseo de la Reforma No. 557,19.3692966,-99.2664871,4,"1 noche, 1 persona",143,874
Gran Hotel Ciudad De México,Av 16 de Septiembre No. 82,19.432047,-99.134663,5,"1 noche, 1 persona",539,3296
Hotel Embassy,115 Puebla Roma Norte,19.423003,-99.160066,3,"1 noche, 1 persona",113,689
Las Suites Campos Eliseos,Campos Eliseos 470,19.430722,-99.205361,NA,"1 noche, 1 persona",402,2457
Hotel Tryp Mexico WTC,Viaducto Miguel Alemán No. 14,19.3991326,-99.1712352,4,"1 noche, 1 persona",156,946
Laila Hotel CDMX,Rio Lerma 237,19.4270034735262,-99.1723109619713,4,"1 noche, 1 persona",199,1236
City Express CDMX Tlalpan,Calzada de Tlalpan 1561,19.3612,-99.1434,4,"1 noche, 1 persona",179,1092
Suites Parioli,RIO PO 108,19.429488,-99.168122,4,"1 noche, 1 persona",150,934
Isaaya Hotel Boutique by WTC,"Dakota 155, Colonia Napoles",19.3941,-99.1755,4,"1 noche, 1 persona",274,1668
Courtyard Mexico City Toreo,"PERIFERICO BOULEVARD MANUEL AVILA CAMACHO NO 150,  ",19.4595043,-99.2238336,4,"1 noche, 1 persona",175,1042
Hotel Stella Maris,Sullivan 69,19.433756,-99.16233,4,"1 noche, 1 persona",184,1122
Holiday Inn Express Mexico Santa Fe,Guillermo Gonzalez Camarena 1400,19.36511,-99.26494,3,"1 noche, 1 persona",176,1075
Hotel Abastos Plaza,Avenida Tezontle No. 133,19.38233,-99.07875,4,"1 noche, 1 persona",165,1002
Hotel Kron,Avenida Insurgentes Sur 3790,19.2926662021743,-99.17693,3,"1 noche, 1 persona",166,1016
City Express CDMX Plaza Central,Eje 6 Sur No. 540 Esq. Hualquila,19.3684301656903,-99.0994419436083,4,"1 noche, 1 persona",162,985
Econo Express Hotel,1035 Calz. de Tlalpan Américas Unidas,19.38099,-99.14042,4,"1 noche, 1 persona",96,586
Wyndham Garden Mexico City Reforma,"Río Ebro, 84",19.428915,-99.169462,NA,"1 noche, 1 persona",251,1537
City Express EBC Reforma,"Havre 21, Col Juarez",19.428003,-99.161969,4,"1 noche, 1 persona",212,1297
Exe Cities Reforma,ROMA 40,19.429645,-99.158928,4,"1 noche, 1 persona",160,978
Crowne Plaza Ciudad de Mexico Norte Tlalnepantla,Roberto Fulton 2-a,19.5388307283565,-99.2031978035811,4,"1 noche, 1 persona",221,1320
Crowne Plaza Hotel de México,Dakota No. 95,19.396417,-99.174472,5,"1 noche, 1 persona",371,2266
City Centro Ciudad de México,Republica de Uruguay No 45 ,19.430419,-99.137884,4,"1 noche, 1 persona",405,2480
Historico Central,"Calle de Bolívar 28, Centro Histórico de la Cdad. de México, Centro, 06000 Ciudad de México, CDMX, Mexico",19.433105,-99.13813,4,"1 noche, 1 persona",1160,7103
Hotel Block Suites,Av. Chapultepec 346,19.42305,-99.16471,NA,"1 noche, 1 persona",174,1065
Hotel Geneve Ciudad de México,Londres 130,19.42773,-99.165196,5,"1 noche, 1 persona",330,2010
Dominion Polanco,Aristoteles 21 ,19.42882,-99.19382,NA,"1 noche, 1 persona",977,5983
Segovia Regency,Av. Chapultepec NO.328 COL. RO,19.423143,-99.164429,4,"1 noche, 1 persona",135,828
Mala Vecindad Beer Hotel,Calle B. De Sahagún 28,19.43995,-99.153880070422,4,"1 noche, 1 persona",39,237
Hotel & Villas Hollywood,Calzada Ignacio Zaragoza #833,19.406923,-99.07489,4,"1 noche, 1 persona",139,851
Suites Havre,Havre 74,19.42533,-99.16055,3,"1 noche, 1 persona",136,781
Hotel Manalba,"Maestro Antonio Caso 23 Col. Tabacalera, Del. Cuauhtemoc",19.43436,-99.155194,3,"1 noche, 1 persona",131,799
Hotel Plaza Revolución,Jesús Terán 35,19.4362892825474,-99.1510064662705,NA,"1 noche, 1 persona",182,1114
Hotel Park Nilo,71 Río Nilo Cuauhtémoc,19.42712,-99.17129,5,"1 noche, 1 persona",293,1793
Hotel Black,James Sullivan 163 Bis ,19.4350944635339,-99.1663692821749,4,"1 noche, 1 persona",141,856
MC Suites Mexico City,"Calle Gral. Prim 106, Juárez, 06600 Juárez, CDMX, Mexico",19.431046,-99.156948,5,"1 noche, 1 persona",312,1797
Exe Suites Reforma,RIO AMAZONAS 78 COL CUAUTEMOCH,19.430515,-99.163199,4,"1 noche, 1 persona",206,1258
PROVIDENCIA 848 WTC,"Providencia 848, Col del Valle Centro, 03100 Ciudad de México, CDMX",19.38861,-99.169408,5,"1 noche, 1 persona",176,1076
Hotel Park Villa,. ,19.41459,-99.18468,4,"1 noche, 1 persona",134,819
The Host Business Suites,Magdalena 311 Col del Valle Centro,19.39204,-99.17188,4,"1 noche, 1 persona",216,1320
Fiesta Americana Viaducto Aeropuerto,Av Viaducto Rio de la Piedad,19.406249,-99.110418,NA,"1 noche, 1 persona",238,1450
Residencias Filadelfia,Filadelfia 42,19.3932102188842,-99.175405644346,5,"1 noche, 1 persona",377,2306
City Express La Raza,Calzada Vallejo No 296 ,19.4683279,-99.1442954,4,"1 noche, 1 persona",164,996
OM 686 Urban Lofts,Calz. Obrero Mundial,19.4018514,-99.1521955,NA,"1 noche, 1 persona",323,1852
The Westin Santa Fe Mexico,Javier Barros Sierra 540,19.365533,-99.259353,5,"1 noche, 1 persona",343,2097
Hotel Exe Suites San Marino,"RIO TIBER 107, COLONIA DE CUAHTEMOC",19.428633,-99.168768,4,"1 noche, 1 persona",154,939
Chalet del Carmen Coyoacan,"Vincent Guerrero 94, Colonia del Carmen",19.3554,-99.16569,NA,"1 noche, 1 persona",253,1546
The Green Park Hotel,Constituyentes 99,19.41515,-99.18498,NA,"1 noche, 1 persona",397,2430
CASA CORP BOUTIQUE SUITES,"Av. Baja California 295, Hipódromo, 06100 Ciudad de México, CDMX, Mexico",19.406057,-99.17228,5,"1 noche, 1 persona",303,1852
City Express Plus Reforma El Ángel,Av. Paseo de la Reforma 334,19.426465,-99.167009,4,"1 noche, 1 persona",256,1560
AR 218 Hotel,Alfonso Reyes 218,19.4074757769468,-99.17384,4,"1 noche, 1 persona",668,3844
Fiesta Inn Ciudad de Mexico Forum Buenavista,Eje 1 Nte. (Mosqueta) 259,19.448021,-99.15282,4,"1 noche, 1 persona",166,1012
Sheraton Santa Fe,"Calle Guillermo Gonzalez Camarena,Col.Centro Cd. 2 ",19.367783,-99.260654,5,"1 noche, 1 persona",218,1327
Camino Real Aeropuerto,"Puerto México 80, Aeropuerto Int de La Cd de México, 15620 Ciudad de México, D.F., México",19.435104,-99.085175,5,"1 noche, 1 persona",395,2409
We Hotel Aeropuerto,"Blvd. Puerto Aéreo 390, Moctezuma 2da Secc, 15530 Ciudad de México, CDMX, Mexico",19.43327,-99.089485,4,"1 noche, 1 persona",224,1372
Galeria Plaza San Jerónimo,Av Contreras 300,19.3285327,-99.212557,5,"1 noche, 1 persona",179,1085
El Diplomatico,"Av. Insurgentes Sur No 1105. Col. Nochebuena, Deleg. Benito Juarez",19.380534,-99.176869,4,"1 noche, 1 persona",170,1032
City Express Tepotzotlán,Autopista Mex Qro Km 42.5 Col.,19.710339,-99.205813,4,"1 noche, 1 persona",175,1065
One Ciudad de Mexico Alameda,"Av Juarez No. 88, Centro ",19.435285,-99.147767,3,"1 noche, 1 persona",177,1084
One Ciudad de Mexico La Raza,Circuito Interior Av. Río Consulado (Antes Paseo D ,19.462819,-99.148581,3,"1 noche, 1 persona",146,895
NH Collection Mexico City Reforma,Liverpool No.155,19.4239658,-99.164851,4,"1 noche, 1 persona",281,1716
Hilton Garden Inn Santa Fe,Calle 3 #55 Col Lomas de Santa Fe01,19.36512,-99.262639,4,"1 noche, 1 persona",192,1198
Quinto Sol Teotihuacan,Av Hidalgo No. 26,19.6807754798698,-98.862936780788,4,"1 noche, 1 persona",185,1124
Doubletree By Hilton Mexico City Santa Fe,Calle 3 No. 55 Col. Lomas de Santa Fe,19.3650657999737,-99.262124666687,4,"1 noche, 1 persona",268,1676
Holiday Inn Express Mexico-Paseo De La Reforma,Paseo de la Reforma 208,19.429314,-99.161596,4,"1 noche, 1 persona",360,2195
Fairfield Inn & Suites Mexico City Vallejo,Calzada Vallejo (eje Pte 1) 1090,19.48785,-99.15148,3,"1 noche, 1 persona",186,1134
Hilton Mexico City Santa Fe,Antonio Dovali Jaime No. 70,19.367576,-99.259421,4,"1 noche, 1 persona",330,2060
NH Collection Mexico City Santa Fe,Juan Salvador Agraz No. 44,19.3593713,-99.2783565,4,"1 noche, 1 persona",223,1388
Kali Ciudadela Mexico City,"Revillagigedo 92, Colonia Centro",19.42864,-99.14702,NA,"1 noche, 1 persona",113,684
Four Seasons Mexico,Paseo de la Reforma 500,19.4228381,-99.174163,5,"1 noche, 1 persona",1007,6167
One Ciudad de México Periférico Sur,Periferico Sur 5530,19.30228,-99.16556,3,"1 noche, 1 persona",206,1262
NH Mexico City Centro Histórico,"Palma 42, Esquina Venustiano Carranza",19.4313082898937,-99.1354888331699,5,"1 noche, 1 persona",216,1315
Xcoco Inn,Carretera Mexico Veracruz 69,19.5252621,-98.860508,4,"1 noche, 1 persona",146,908
St. Regis Mexico City,Paseo de la Reforma 439,19.4255445307117,-99.1721279849298,5,"1 noche, 1 persona",847,5185
Hilton Mexico City Airport,"Inside Mexico City Airport, Terminal 1",19.43525,-99.083111,5,"1 noche, 1 persona",479,2993
Hotel Marbella,"Frontera 205, esquina San Luís Potosí",19.4148,-99.15482,4,"1 noche, 1 persona",164,1000
Holiday Inn Express Mexico - Toreo,AV PRIMERO DE MAYO 226,19.4657285,-99.2321921,NA,"1 noche, 1 persona",187,1165
Alteza Polanco,Blas Pascal No. 111,19.43827639,-99.21177103,4,"1 noche, 1 persona",279,1710
MX Grand Suites - Adults Only,Rio Lerma 275 Col Cuauhtemoc,19.42637,-99.17355,4,"1 noche, 1 persona",343,2098
Kuarti Posada Viena,Marsella 28,19.4260624,-99.1576801,4,"1 noche, 1 persona",109,677
Stanza Hotel,"Av. Alvaro Obregon 13, esq. Morelia",19.4193369630451,-99.1550083458424,4,"1 noche, 1 persona",192,1177
Holiday Inn Ciudad De Mexico-Trade Center,Av. Revolución 583,19.387922,-99.186697,4,"1 noche, 1 persona",244,1489
Courtyard Mexico City Revolucion,Av. Revolucion No. 333,19.3964422948488,-99.1854424774374,4,"1 noche, 1 persona",170,1037
Wyndham Garden Mexico City Polanco,Leon Tolstoi 22,19.425185,-99.177608,4,"1 noche, 1 persona",258,1578
Hotel Novit,Av. Insurgentes Sur No. 365,19.39602,-99.17194,4,"1 noche, 1 persona",240,1470
Downtown,"Isabel la CatÃ³lica 30,",19.43291,-99.13634,3,"1 noche, 1 persona",890,5569
DON JACINTO B&B,Zamora 13A,19.4192169,-99.1766202,NA,"1 noche, 1 persona",335,2043
Hotel el Patio CDMX,AV. INSURGENTES NORTE 734,19.4628,-99.144861,3,"1 noche, 1 persona",58,351
Casa Prim Hotel Boutique,"Calle General Prim, 72, Col. Juarez",19.4305644074072,-99.155407,NA,"1 noche, 1 persona",376,2301
Hyatt Regency Mexico City,Campos Eliseos No. 204 Polanco,19.426885,-99.192766,5,"1 noche, 1 persona",626,3831
Hotel Brasilia,Av. de los 100 Metros No. 4823,19.4752,-99.1387,3,"1 noche, 1 persona",155,945
Condesa DF,Av Veracruz 102 Col Condesa,19.4162,-99.1721555555556,4,"1 noche, 1 persona",1014,6344
Stara Hamburgo,Hamburgo No. 32,19.4282376,-99.16021,5,"1 noche, 1 persona",519,3180
Hotel El Estadio,5 Calle de Chiapas Roma Norte,19.41394,-99.15483,3,"1 noche, 1 persona",88,538
J. Towers Hotel Boutique,Texas No. 17,19.39294,-99.17681,4,"1 noche, 1 persona",266,1629
Armonik Suites,Rio Nazas 168,19.4302,-99.17131,3,"1 noche, 1 persona",227,1307
MyPlace at Santo Domingo,República de Perú 87,19.43975,-99.13411,4,"1 noche, 1 persona",294,1692
Hotel Atlante,C. Ciencias No. 91,19.40344,-99.18088,3,"1 noche, 1 persona",81,496
The Wild Oscar,Lamartine 516,19.4300053,-99.1901642,NA,"1 noche, 1 persona",613,3753
Villas Teotihuacan Hotel Spa,Periferico Sur  S/N Zona Arqueologica ,19.6801314699517,-98.8505172729492,3,"1 noche, 1 persona",276,1652
Pug Seal Anatole France,307 Anatole France Polanco III Sección,19.43621,-99.19724,4,"1 noche, 1 persona",580,3553
Orchid House Hotels,76 Campos Elíseos Polanco V Sección,19.42999,-99.18599,NA,"1 noche, 1 persona",719,4404
Hotel Bonn,18 de Julio #45,19.40002,-99.1825,3,"1 noche, 1 persona",104,632
Holiday Inn Express Mexico Basilica,Calzada de Guadalupe No. 54,19.45512,-99.129369,3,"1 noche, 1 persona",191,1195
Brick,Orizaba 95 Roma Norte,19.419259,-99.160199,NA,"1 noche, 1 persona",1749,10945
Hotel Maria Cristina,CALLE RIO LERMA 31 COL CUAUHTEMOC,19.431301,-99.163166,4,"1 noche, 1 persona",202,1237
Hotel Maxintimo,Fernando de Alva Ixtlilxóchitl 23,19.42025,-99.14292,3,"1 noche, 1 persona",99,607
Casa Castelar,Emilio Castelar 34 ,19.429178,-99.19299,3,"1 noche, 1 persona",445,2561
The Gallery by MyPlace,149 Francisco Márquez,19.41274,-99.18029,4,"1 noche, 1 persona",405,1615
Hotel Beverly,Av. Nueva York No. 301,19.3871,-99.1757,4,"1 noche, 1 persona",139,851
Hotel Benidorm,Frontera 217,19.41441,-99.15472,5,"1 noche, 1 persona",175,1070
Suites Capri Reforma,Paseo de la Reforma # 410,19.42502,-99.17096,4,"1 noche, 1 persona",294,1694
Tistik Suites,253 Sagredo Guadalupe Inn,19.36137,-99.18832,4,"1 noche, 1 persona",151,920
Habita,Av Presidente Masaryk 201,19.4315229479781,-99.1899,4,"1 noche, 1 persona",670,4104
Hotel Casa Gonzalez,Rio Sena 69,19.4303,-99.16613,3,"1 noche, 1 persona",176,1076
Ryo Kan Ciudad de México,Rio Panuco No 166 Col Cuauhtemoc,19.42869,-99.17152,4,"1 noche, 1 persona",369,2255
La Casita de Coyoacán,"Tlatetilpa 14, San Lucas, 04030 Ciudad de México, D.F., México",19.35065,-99.15283,3,"1 noche, 1 persona",170,1041
Casa Moctezuma,"Moctezuma 79, Col. Del Carmen, Coyoacán",19.35092,-99.15939,3,"1 noche, 1 persona",315,1928
Hotel La Luna,Calzada de Tlalpan 4383,19.2968,-99.1527,3,"1 noche, 1 persona",164,1001
Pennsylvania Suites Home and Business,Pennsylvania 127 ,19.39055,-99.17856,4,"1 noche, 1 persona",340,2080
Hotel Villa De Madrid,Calzada de Guadalupe No. 195,19.46202,-99.125879,4,"1 noche, 1 persona",118,721
Casa Condesa Michoacan 113,113 Av Michoacán Colonia Condesa,19.41167,-99.175997,3,"1 noche, 1 persona",186,1138
Hotel Ambos Mundos,Avenida Revolución 135,19.402929,-99.184687,3,"1 noche, 1 persona",123,751
Suites Batia,Av. Del Parque No. 24,19.3952013370697,-99.175922870636,NA,"1 noche, 1 persona",295,1807
Holiday Inn Ciudad De Mexico Perinorte,AV. DOCTOR GUSTAVO BAZ 4873,19.58397,-99.20296,3,"1 noche, 1 persona",167,1036
Hotel Harare,Calzada de Tlalpan 877,19.38814,-99.13926,3,"1 noche, 1 persona",117,717
Pepper My Love,76 Moctezuma Del Carmen,19.35084,-99.1593,3,"1 noche, 1 persona",126,726
Hotel Jard Inn Adults only,2376 Calz. de Tlalpan El Centinela,19.335129,-99.1415154,3,"1 noche, 1 persona",139,847
